[{"OBJECT_NAME":"SITRO-AIS 8 (ANOKHIN)","OBJECT_ID":"2023-091AD","EPOCH":"2026-03-09T23:44:40.058592","MEAN_MOTION":15.29359179,"ECCENTRICITY":0.0012509,"INCLINATION":97.5169,"RA_OF_ASC_NODE":133.2823,"ARG_OF_PERICENTER":92.0171,"MEAN_ANOMALY":268.2501,"EPHEMERIS_TYPE":0,"CLASSIFICATION_TYPE":"U","NORAD_CAT_ID":57193,"ELEMENT_SET_NO":999,"REV_AT_EPOCH":14927,"BSTAR":0.00064982524,"MEAN_MOTION_DOT":0.00018494,"MEAN_MOTION_DDOT":0},{"OBJECT_NAME":"STARLINK-34211","OBJECT_ID":"2025-119Y","EPOCH":"2026-03-08T16:49:12.563904","MEAN_MOTION":15.27578031,"ECCENTRICITY":8.06e-5,"INCLINATION":42.999,"RA_OF_ASC_NODE":313.0169,"ARG_OF_PERICENTER":273.6098,"MEAN_ANOMALY":86.4661,"EPHEMERIS_TYPE":0,"CLASSIFICATION_TYPE":"U","NORAD_CAT_ID":64255,"ELEMENT_SET_NO":999,"REV_AT_EPOCH":4401,"BSTAR":0.0013204804,"MEAN_MOTION_DOT":0.00036251,"MEAN_MOTION_DDOT":0}]
